STARLINK-3194           
1 49758U 21115AL  25352.61659954  .00000139  00000+0  26808-4 0  9995
2 49758  53.2173 143.0690 0001344  87.4456 272.6690 15.08838811223434
STARLINK-3204           
1 49759U 21115AM  25353.79788271  .00000183  00000+0  29563-4 0  9991
2 49759  53.2170 137.7667 0001352  88.3018 271.8129 15.08837829223615
STARLINK-3199           
1 49760U 21115AN  25353.81627278  .00000443  00000+0  45938-4 0  9998
2 49760  53.2164 137.6852 0001181  87.4943 272.6184 15.08844574223628
STARLINK-3203           
1 49761U 21115AP  25353.80523929  .00000456  00000+0  46739-4 0  9990
2 49761  53.2165 137.7344 0001193  86.3726 273.7402 15.08842686223613
STARLINK-3195           
1 49762U 21115AQ  25352.69756113 -.00000242  00000+0  28595-5 0  9995
2 49762  53.2174 142.7107 0001347  87.9861 272.1286 15.08840280223458
STARLINK-3198           
1 49763U 21115AR  25353.81259698  .00000184  00000+0  29647-4 0  9999
2 49763  53.2171 137.7009 0001282  94.6780 265.4358 15.08840040223622
STARLINK-3227           
1 49765U 21115AT  25353.68843615 -.00000329  00000+0 -25512-5 0  9995
2 49765  53.2167 138.2690 0001370  92.2508 267.8641 15.08840130223600
STARLINK-3190           
1 49766U 21115AU  25352.64332148  .00000937  00000+0  76944-4 0  9992
2 49766  53.2168 142.9624 0001230 100.7983 259.3148 15.08848835223448
STARLINK-3192           
1 49767U 21115AV  25353.42988183  .00000027  00000+0  19812-4 0  9997
2 49767  53.2174 139.4207 0001385  90.7044 269.4107 15.08831774223565
STARLINK-3196           
1 49768U 21115AW  25353.70955936  .00000618  00000+0  56936-4 0  9993
2 49768  53.2172 138.1669 0001207  85.0666 275.0464 15.08837648223602
STARLINK-3208           
1 49769U 21115AX  25352.65064026  .00005296  00000+0  35021-3 0  9996
2 49769  53.2171 142.9681 0001226  63.3691 296.7427 15.08878502223442
STARLINK-3191           
1 49770U 21115AY  25353.38670093  .00000508  00000+0  50021-4 0  9995
2 49770  53.2173 139.6616 0001033  82.4259 277.6851 15.08828769224670
STARLINK-3201           
1 49771U 21115AZ  25352.85580049  .00000240  00000+0  33200-4 0  9991
2 49771  53.2178 141.9964 0001379  85.8961 274.2189 15.08836915223474
STARLINK-3317           
1 50156U 21125A   25353.81433874  .00511575  13801-3  64649-3 0  9996
2 50156  53.2122 221.4991 0001889 169.7688 190.3386 16.06942010224943
STARLINK-3297           
1 50159U 21125D   25353.14745568  .00002524  00000+0  17654-3 0  9997
2 50159  53.2165 260.7004 0001367  87.9247 272.1902 15.08859255224297
STARLINK-3304           
1 50161U 21125F   25353.15755769  .00000233  00000+0  32763-4 0  9999
2 50161  53.2175 260.6451 0001502  93.4590 266.6574 15.08841447224297
