[{"OBJECT_NAME":"STARLINK-3194","OBJECT_ID":"2021-115AL","EPOCH":"2025-12-18T14:47:54.200256","MEAN_MOTION":15.08838811,"ECCENTRICITY":0.00013449,"INCLINATION":53.2173,"RA_OF_ASC_NODE":143.069,"ARG_OF_PERICENTER":87.4456,"MEAN_ANOMALY":272.669,"EPHEMERIS_TYPE":0,"CLASSIFICATION_TYPE":"U","NORAD_CAT_ID":49758,"ELEMENT_SET_NO":999,"REV_AT_EPOCH":22343,"BSTAR":2.6807858e-5,"MEAN_MOTION_DOT":1.39e-6,"MEAN_MOTION_DDOT":0},{"OBJECT_NAME":"STARLINK-3204","OBJECT_ID":"2021-115AM","EPOCH":"2025-12-19T19:08:57.066144","MEAN_MOTION":15.08837829,"ECCENTRICITY":0.0001352,"INCLINATION":53.217,"RA_OF_ASC_NODE":137.7667,"ARG_OF_PERICENTER":88.3018,"MEAN_ANOMALY":271.8129,"EPHEMERIS_TYPE":0,"CLASSIFICATION_TYPE":"U","NORAD_CAT_ID":49759,"ELEMENT_SET_NO":999,"REV_AT_EPOCH":22361,"BSTAR":2.9563e-5,"MEAN_MOTION_DOT":1.83e-6,"MEAN_MOTION_DDOT":0},{"OBJECT_NAME":"STARLINK-3199","OBJECT_ID":"2021-115AN","EPOCH":"2025-12-19T19:35:25.968192","MEAN_MOTION":15.08844574,"ECCENTRICITY":0.0001181,"INCLINATION":53.2164,"RA_OF_ASC_NODE":137.6852,"ARG_OF_PERICENTER":87.4943,"MEAN_ANOMALY":272.6184,"EPHEMERIS_TYPE":0,"CLASSIFICATION_TYPE":"U","NORAD_CAT_ID":49760,"ELEMENT_SET_NO":999,"REV_AT_EPOCH":22362,"BSTAR":4.5938e-5,"MEAN_MOTION_DOT":4.43e-6,"MEAN_MOTION_DDOT":0},{"OBJECT_NAME":"STARLINK-3203","OBJECT_ID":"2021-115AP","EPOCH":"2025-12-19T19:19:32.674656","MEAN_MOTION":15.08842686,"ECCENTRICITY":0.0001193,"INCLINATION":53.2165,"RA_OF_ASC_NODE":137.7344,"ARG_OF_PERICENTER":86.3726,"MEAN_ANOMALY":273.7402,"EPHEMERIS_TYPE":0,"CLASSIFICATION_TYPE":"U","NORAD_CAT_ID":49761,"ELEMENT_SET_NO":999,"REV_AT_EPOCH":22361,"BSTAR":4.6739e-5,"MEAN_MOTION_DOT":4.56e-6,"MEAN_MOTION_DDOT":0},{"OBJECT_NAME":"STARLINK-3195","OBJECT_ID":"2021-115AQ","EPOCH":"2025-12-18T16:44:29.281632","MEAN_MOTION":15.0884028,"ECCENTRICITY":0.00013474,"INCLINATION":53.2174,"RA_OF_ASC_NODE":142.7107,"ARG_OF_PERICENTER":87.9861,"MEAN_ANOMALY":272.1286,"EPHEMERIS_TYPE":0,"CLASSIFICATION_TYPE":"U","NORAD_CAT_ID":49762,"ELEMENT_SET_NO":999,"REV_AT_EPOCH":22345,"BSTAR":2.859517e-6,"MEAN_MOTION_DOT":-2.42e-6,"MEAN_MOTION_DDOT":0},{"OBJECT_NAME":"STARLINK-3198","OBJECT_ID":"2021-115AR","EPOCH":"2025-12-19T19:30:08.379072","MEAN_MOTION":15.0884004,"ECCENTRICITY":0.0001282,"INCLINATION":53.2171,"RA_OF_ASC_NODE":137.7009,"ARG_OF_PERICENTER":94.678,"MEAN_ANOMALY":265.4358,"EPHEMERIS_TYPE":0,"CLASSIFICATION_TYPE":"U","NORAD_CAT_ID":49763,"ELEMENT_SET_NO":999,"REV_AT_EPOCH":22362,"BSTAR":2.9647e-5,"MEAN_MOTION_DOT":1.84e-6,"MEAN_MOTION_DDOT":0},{"OBJECT_NAME":"STARLINK-3227","OBJECT_ID":"2021-115AT","EPOCH":"2025-12-19T16:31:20.883360","MEAN_MOTION":15.0884013,"ECCENTRICITY":0.000137,"INCLINATION":53.2167,"RA_OF_ASC_NODE":138.269,"ARG_OF_PERICENTER":92.2508,"MEAN_ANOMALY":267.8641,"EPHEMERIS_TYPE":0,"CLASSIFICATION_TYPE":"U","NORAD_CAT_ID":49765,"ELEMENT_SET_NO":999,"REV_AT_EPOCH":22360,"BSTAR":-2.5512e-6,"MEAN_MOTION_DOT":-3.29e-6,"MEAN_MOTION_DDOT":0},{"OBJECT_NAME":"STARLINK-3190","OBJECT_ID":"2021-115AU","EPOCH":"2025-12-18T15:26:22.975872","MEAN_MOTION":15.08848835,"ECCENTRICITY":0.000123,"INCLINATION":53.2168,"RA_OF_ASC_NODE":142.9624,"ARG_OF_PERICENTER":100.7983,"MEAN_ANOMALY":259.3148,"EPHEMERIS_TYPE":0,"CLASSIFICATION_TYPE":"U","NORAD_CAT_ID":49766,"ELEMENT_SET_NO":999,"REV_AT_EPOCH":22344,"BSTAR":7.6944476e-5,"MEAN_MOTION_DOT":9.37e-6,"MEAN_MOTION_DDOT":0},{"OBJECT_NAME":"STARLINK-3192","OBJECT_ID":"2021-115AV","EPOCH":"2025-12-19T10:19:01.790112","MEAN_MOTION":15.08831774,"ECCENTRICITY":0.0001385,"INCLINATION":53.2174,"RA_OF_ASC_NODE":139.4207,"ARG_OF_PERICENTER":90.7044,"MEAN_ANOMALY":269.4107,"EPHEMERIS_TYPE":0,"CLASSIFICATION_TYPE":"U","NORAD_CAT_ID":49767,"ELEMENT_SET_NO":999,"REV_AT_EPOCH":22356,"BSTAR":1.9812e-5,"MEAN_MOTION_DOT":2.7e-7,"MEAN_MOTION_DDOT":0},{"OBJECT_NAME":"STARLINK-3196","OBJECT_ID":"2021-115AW","EPOCH":"2025-12-19T17:01:45.928704","MEAN_MOTION":15.08837648,"ECCENTRICITY":0.0001207,"INCLINATION":53.2172,"RA_OF_ASC_NODE":138.1669,"ARG_OF_PERICENTER":85.0666,"MEAN_ANOMALY":275.0464,"EPHEMERIS_TYPE":0,"CLASSIFICATION_TYPE":"U","NORAD_CAT_ID":49768,"ELEMENT_SET_NO":999,"REV_AT_EPOCH":22360,"BSTAR":5.6936e-5,"MEAN_MOTION_DOT":6.18e-6,"MEAN_MOTION_DDOT":0},{"OBJECT_NAME":"STARLINK-3208","OBJECT_ID":"2021-115AX","EPOCH":"2025-12-18T15:36:55.318464","MEAN_MOTION":15.08878502,"ECCENTRICITY":0.00012265,"INCLINATION":53.2171,"RA_OF_ASC_NODE":142.9681,"ARG_OF_PERICENTER":63.3691,"MEAN_ANOMALY":296.7427,"EPHEMERIS_TYPE":0,"CLASSIFICATION_TYPE":"U","NORAD_CAT_ID":49769,"ELEMENT_SET_NO":999,"REV_AT_EPOCH":22344,"BSTAR":0.00035021347,"MEAN_MOTION_DOT":5.296e-5,"MEAN_MOTION_DDOT":0},{"OBJECT_NAME":"STARLINK-3191","OBJECT_ID":"2021-115AY","EPOCH":"2025-12-19T09:16:50.960352","MEAN_MOTION":15.08828769,"ECCENTRICITY":0.0001033,"INCLINATION":53.2173,"RA_OF_ASC_NODE":139.6616,"ARG_OF_PERICENTER":82.4259,"MEAN_ANOMALY":277.6851,"EPHEMERIS_TYPE":0,"CLASSIFICATION_TYPE":"U","NORAD_CAT_ID":49770,"ELEMENT_SET_NO":999,"REV_AT_EPOCH":22467,"BSTAR":5.0021e-5,"MEAN_MOTION_DOT":5.08e-6,"MEAN_MOTION_DDOT":0},{"OBJECT_NAME":"STARLINK-3201","OBJECT_ID":"2021-115AZ","EPOCH":"2025-12-18T20:32:21.162336","MEAN_MOTION":15.08836915,"ECCENTRICITY":0.0001379,"INCLINATION":53.2178,"RA_OF_ASC_NODE":141.9964,"ARG_OF_PERICENTER":85.8961,"MEAN_ANOMALY":274.2189,"EPHEMERIS_TYPE":0,"CLASSIFICATION_TYPE":"U","NORAD_CAT_ID":49771,"ELEMENT_SET_NO":999,"REV_AT_EPOCH":22347,"BSTAR":3.3200257e-5,"MEAN_MOTION_DOT":2.4e-6,"MEAN_MOTION_DDOT":0},{"OBJECT_NAME":"STARLINK-3317","OBJECT_ID":"2021-125A","EPOCH":"2025-12-19T19:32:38.867136","MEAN_MOTION":16.0694201,"ECCENTRICITY":0.0001889,"INCLINATION":53.2122,"RA_OF_ASC_NODE":221.4991,"ARG_OF_PERICENTER":169.7688,"MEAN_ANOMALY":190.3386,"EPHEMERIS_TYPE":0,"CLASSIFICATION_TYPE":"U","NORAD_CAT_ID":50156,"ELEMENT_SET_NO":999,"REV_AT_EPOCH":22494,"BSTAR":0.00064649,"MEAN_MOTION_DOT":0.00511575,"MEAN_MOTION_DDOT":0.00013801},{"OBJECT_NAME":"STARLINK-3297","OBJECT_ID":"2021-125D","EPOCH":"2025-12-19T03:32:20.170752","MEAN_MOTION":15.08859255,"ECCENTRICITY":0.0001367,"INCLINATION":53.2165,"RA_OF_ASC_NODE":260.7004,"ARG_OF_PERICENTER":87.9247,"MEAN_ANOMALY":272.1902,"EPHEMERIS_TYPE":0,"CLASSIFICATION_TYPE":"U","NORAD_CAT_ID":50159,"ELEMENT_SET_NO":999,"REV_AT_EPOCH":22429,"BSTAR":0.00017654382,"MEAN_MOTION_DOT":2.524e-5,"MEAN_MOTION_DDOT":0},{"OBJECT_NAME":"STARLINK-3304","OBJECT_ID":"2021-125F","EPOCH":"2025-12-19T03:46:52.984416","MEAN_MOTION":15.08841447,"ECCENTRICITY":0.00015022,"INCLINATION":53.2175,"RA_OF_ASC_NODE":260.6451,"ARG_OF_PERICENTER":93.459,"MEAN_ANOMALY":266.6574,"EPHEMERIS_TYPE":0,"CLASSIFICATION_TYPE":"U","NORAD_CAT_ID":50161,"ELEMENT_SET_NO":999,"REV_AT_EPOCH":22429,"BSTAR":3.2762723e-5,"MEAN_MOTION_DOT":2.33e-6,"MEAN_MOTION_DDOT":0}]
